STARLINK-3970           
1 52706U 22053BC  26068.54954740 -.00000077  00000+0  13268-4 0  9990
2 52706  53.2157 134.7499 0001085  89.5291 270.5826 15.08840677211291
LEMUR-2-SIERRINI        
1 60579U 24149DR  26068.80891719  .00014386  00000+0  92040-3 0  9991
2 60579  97.6873 151.1225 0006580 147.8458 212.3173 15.08682764 85461
